[{"OBJECT_NAME":"HONGYUN 1","OBJECT_ID":"2018-108A","EPOCH":"2026-03-10T00:13:12.376992","MEAN_MOTION":13.50804473,"ECCENTRICITY":0.00109018,"INCLINATION":99.7768,"RA_OF_ASC_NODE":92.5913,"ARG_OF_PERICENTER":263.9195,"MEAN_ANOMALY":96.0698,"EPHEMERIS_TYPE":0,"CLASSIFICATION_TYPE":"U","NORAD_CAT_ID":43871,"ELEMENT_SET_NO":999,"REV_AT_EPOCH":35569,"BSTAR":-0.00022113401,"MEAN_MOTION_DOT":-1.87e-6,"MEAN_MOTION_DDOT":0},{"OBJECT_NAME":"QIANFAN-4","OBJECT_ID":"2024-140D","EPOCH":"2026-03-09T21:04:24.995712","MEAN_MOTION":13.5100067,"ECCENTRICITY":0.00115721,"INCLINATION":88.9712,"RA_OF_ASC_NODE":290.1387,"ARG_OF_PERICENTER":303.5402,"MEAN_ANOMALY":56.4643,"EPHEMERIS_TYPE":0,"CLASSIFICATION_TYPE":"U","NORAD_CAT_ID":60382,"ELEMENT_SET_NO":999,"REV_AT_EPOCH":7920,"BSTAR":9.7437554e-5,"MEAN_MOTION_DOT":7.5e-7,"MEAN_MOTION_DDOT":0}]
